{"type":"FeatureCollection","name":"二十三日輔助點","crs":{"type":"name","properties":{"name":"urn:ogc:def:crs:OGC:1.3:CRS84"}},"description":"route_auxiliary獨立點層","features":[{"type":"Feature","properties":{"aux_order":15,"aux_id":"23A-01","date":"二十三日","segment":"二十三日-A（三峰山）","name":"象山／三峰山","aux_type":"山岳／母地物","route_role":"mountain_parent_anchor","coordinate_status":"modern_parent_anchor","confidence":"中低","record_level":"route_auxiliary","gis_decision":"exclude","source_1":"https://www.amap.com/place/B0KG0DFDHG","source_2":"https://www.gushiji.org/guwen/5341","note":"母地物錨點，不把整座山代替一線天／墓址精確點。"},"geometry":{"type":"Point","coordinates":[117.206618,28.276501]}},{"type":"Feature","properties":{"aux_order":16,"aux_id":"23A-02","date":"二十三日","segment":"二十三日-A（三峰山）","name":"五面峰／一線天母地物","aux_type":"山峰／峽谷","route_role":"nested_feature_anchor","coordinate_status":"route_relative_projection","confidence":"中低","record_level":"route_auxiliary","gis_decision":"exclude","source_1":"https://www.shidianguji.com/book/HY2516/chapter/1kpc9d09e5vdm","source_2":"https://www.gushiji.org/guwen/5341","note":"五面峰／一線天屬母地物內部景觀，正式點仍保留誤差圈。"},"geometry":{"type":"Point","coordinates":[117.19939762003003,28.270141646135688]}},{"type":"Feature","properties":{"aux_order":17,"aux_id":"23A-03","date":"二十三日","segment":"二十三日-A（三峰山）","name":"徐岩／朝真宮","aux_type":"歷史遺址／母地物","route_role":"historical_parent_anchor","coordinate_status":"modern_parent_area_proxy","confidence":"中低","record_level":"route_auxiliary","gis_decision":"exclude","source_1":"https://www.amap.com/place/B0KG0DFDHG","source_2":"https://www.gushiji.org/guwen/5341","note":"僅作母地物末端錨點，不宣稱小隱岩或朝真宮同址精確中心。"},"geometry":{"type":"Point","coordinates":[117.21056349002849,28.275569897087937]}},{"type":"Feature","properties":{"aux_order":18,"aux_id":"23B-01","date":"二十三日","segment":"二十三日-B（曹山至朱溪）","name":"曹山","aux_type":"山岳／出發錨點","route_role":"mountain_anchor","coordinate_status":"modern_anchor","confidence":"中低","record_level":"route_auxiliary","gis_decision":"exclude","source_1":"https://www.openstreetmap.org/node/11838197068","source_2":"https://www.shidianguji.com/book/NA02851/chapter/1m6jjz17v2qzn","note":"橋、溪流及山路只作route_auxiliary／走廊節點，不能當正式地標。"},"geometry":{"type":"Point","coordinates":[116.1083554,27.5621533]}},{"type":"Feature","properties":{"aux_order":19,"aux_id":"23B-02","date":"二十三日","segment":"二十三日-B（曹山至朱溪）","name":"陳坊木橋","aux_type":"橋梁／道路節點","route_role":"bridge_route_auxiliary","coordinate_status":"route_relative_projection","confidence":"低","record_level":"route_auxiliary","gis_decision":"exclude","source_1":"https://zh.wikisource.org/zh-hans/%E5%BE%90%E9%9C%9E%E5%AE%A2%E9%81%8A%E8%A8%98/%E6%B1%9F%E5%8F%B3%E9%81%8A%E6%97%A5%E8%A8%98","source_2":"https://www.shidianguji.com/book/NA02851/chapter/1m6jjz17v2qzn","note":"橋、溪流及山路只作route_auxiliary／走廊節點，不能當正式地標。"},"geometry":{"type":"Point","coordinates":[116.09858461627907,27.55698896744186]}},{"type":"Feature","properties":{"aux_order":20,"aux_id":"23B-03","date":"二十三日","segment":"二十三日-B（曹山至朱溪）","name":"鵬風橋","aux_type":"橋梁／溪流節點","route_role":"bridge_route_auxiliary","coordinate_status":"route_relative_projection","confidence":"低","record_level":"route_auxiliary","gis_decision":"exclude","source_1":"https://zh.wikisource.org/zh-hans/%E5%BE%90%E9%9C%9E%E5%AE%A2%E9%81%8A%E8%A8%98/%E6%B1%9F%E5%8F%B3%E9%81%8A%E6%97%A5%E8%A8%98","source_2":"https://www.shidianguji.com/book/NA02851/chapter/1m6jjz17v2qzn","note":"橋、溪流及山路只作route_auxiliary／走廊節點，不能當正式地標。"},"geometry":{"type":"Point","coordinates":[116.0920707604651,27.553546079069765]}},{"type":"Feature","properties":{"aux_order":21,"aux_id":"23B-04","date":"二十三日","segment":"二十三日-B（曹山至朱溪）","name":"接龍橋","aux_type":"橋梁／界線節點","route_role":"bridge_route_auxiliary","coordinate_status":"route_relative_projection","confidence":"低","record_level":"route_auxiliary","gis_decision":"exclude","source_1":"https://zh.wikisource.org/zh-hans/%E5%BE%90%E9%9C%9E%E5%AE%A2%E9%81%8A%E8%A8%98/%E6%B1%9F%E5%8F%B3%E9%81%8A%E6%97%A5%E8%A8%98","source_2":"https://www.shidianguji.com/book/NA02851/chapter/1m6jjz17v2qzn","note":"橋、溪流及山路只作route_auxiliary／走廊節點，不能當正式地標。"},"geometry":{"type":"Point","coordinates":[116.08229997674418,27.548381746511627]}},{"type":"Feature","properties":{"aux_order":22,"aux_id":"23B-05","date":"二十三日","segment":"二十三日-B（曹山至朱溪）","name":"廖庄橋","aux_type":"橋梁／溪流節點","route_role":"bridge_route_auxiliary","coordinate_status":"route_relative_projection","confidence":"低","record_level":"route_auxiliary","gis_decision":"exclude","source_1":"https://zh.wikisource.org/zh-hans/%E5%BE%90%E9%9C%9E%E5%AE%A2%E9%81%8A%E8%A8%98/%E6%B1%9F%E5%8F%B3%E9%81%8A%E6%97%A5%E8%A8%98","source_2":"https://www.shidianguji.com/book/NA02851/chapter/1m6jjz17v2qzn","note":"橋、溪流及山路只作route_auxiliary／走廊節點，不能當正式地標。"},"geometry":{"type":"Point","coordinates":[116.00250524302325,27.50620636395349]}},{"type":"Feature","properties":{"aux_order":23,"aux_id":"23B-06","date":"二十三日","segment":"二十三日-B（曹山至朱溪）","name":"練樹橋","aux_type":"橋梁／巴溪節點","route_role":"bridge_route_auxiliary","coordinate_status":"route_relative_projection","confidence":"低","record_level":"route_auxiliary","gis_decision":"exclude","source_1":"https://zh.wikisource.org/zh-hans/%E5%BE%90%E9%9C%9E%E5%AE%A2%E9%81%8A%E8%A8%98/%E6%B1%9F%E5%8F%B3%E9%81%8A%E6%97%A5%E8%A8%98","source_2":"https://www.shidianguji.com/book/NA02851/chapter/1m6jjz17v2qzn","note":"橋、溪流及山路只作route_auxiliary／走廊節點，不能當正式地標。"},"geometry":{"type":"Point","coordinates":[115.98622060348836,27.49759914302326]}},{"type":"Feature","properties":{"aux_order":24,"aux_id":"23B-07","date":"二十三日","segment":"二十三日-B（曹山至朱溪）","name":"純鄉溪","aux_type":"溪流／村落節點","route_role":"stream_route_auxiliary","coordinate_status":"route_relative_projection","confidence":"低","record_level":"route_auxiliary","gis_decision":"exclude","source_1":"https://zh.wikisource.org/zh-hans/%E5%BE%90%E9%9C%9E%E5%AE%A2%E9%81%8A%E8%A8%98/%E6%B1%9F%E5%8F%B3%E9%81%8A%E6%97%A5%E8%A8%98","source_2":"https://www.shidianguji.com/book/NA02851/chapter/1m6jjz17v2qzn","note":"橋、溪流及山路只作route_auxiliary／走廊節點，不能當正式地標。"},"geometry":{"type":"Point","coordinates":[116.04158837790698,27.526863694186048]}},{"type":"Feature","properties":{"aux_order":25,"aux_id":"23B-08","date":"二十三日","segment":"二十三日-B（曹山至朱溪）","name":"小巴溪／大巴溪水系","aux_type":"溪流／河谷節點","route_role":"stream_route_auxiliary","coordinate_status":"route_relative_projection","confidence":"低","record_level":"route_auxiliary","gis_decision":"exclude","source_1":"https://zh.wikisource.org/zh-hans/%E5%BE%90%E9%9C%9E%E5%AE%A2%E9%81%8A%E8%A8%98/%E6%B1%9F%E5%8F%B3%E9%81%8A%E6%97%A5%E8%A8%98","source_2":"https://www.shidianguji.com/book/NA02851/chapter/1m6jjz17v2qzn","note":"橋、溪流及山路只作route_auxiliary／走廊節點，不能當正式地標。"},"geometry":{"type":"Point","coordinates":[115.98133521162791,27.495016976744186]}},{"type":"Feature","properties":{"aux_order":26,"aux_id":"23B-09","date":"二十三日","segment":"二十三日-B（曹山至朱溪）","name":"罕浒","aux_type":"溪流匯合點","route_role":"stream_route_auxiliary","coordinate_status":"route_relative_projection","confidence":"低","record_level":"route_auxiliary","gis_decision":"exclude","source_1":"https://zh.wikisource.org/zh-hans/%E5%BE%90%E9%9C%9E%E5%AE%A2%E9%81%8A%E8%A8%98/%E6%B1%9F%E5%8F%B3%E9%81%8A%E6%97%A5%E8%A8%98","source_2":"https://www.shidianguji.com/book/NA02851/chapter/1m6jjz17v2qzn","note":"橋、溪流及山路只作route_auxiliary／走廊節點，不能當正式地標。"},"geometry":{"type":"Point","coordinates":[115.97970674767441,27.494156254651163]}},{"type":"Feature","properties":{"aux_order":27,"aux_id":"23B-10","date":"二十三日","segment":"二十三日-B（曹山至朱溪）","name":"朱溪（朱碧街可能今名）","aux_type":"村莊／現代候選錨點","route_role":"village_modern_anchor","coordinate_status":"probable_modern_alias","confidence":"中低","record_level":"route_auxiliary","gis_decision":"exclude","source_1":"https://www.openstreetmap.org/node/8857634831","source_2":"https://sucra.repo.nii.ac.jp/record/17737/files/KY-AA12318206-6401-11.pdf","note":"現代朱溪是唯一較強的異名候選；仍須地方志原文核對。"},"geometry":{"type":"Point","coordinates":[115.9683075,27.4881312]}}]}