{"type":"FeatureCollection","name":"二十三日再算走廊","crs":{"type":"name","properties":{"name":"urn:ogc:def:crs:OGC:1.3:CRS84"}},"description":"Polygon搜尋走廊","features":[{"type":"Feature","properties":{"corridor_order":20,"date":"二十三日","segment":"二十三日-A（三峰山）","from_id":"23A-01","from_name":"象山／三峰山","to_id":"F-185","to_name":"张真人墓","corridor_width_m":1700,"distance_m":524,"bearing_deg":132.5,"coordinate_status":"estimated_auxiliary_constrained_corridor","gis_decision":"pending/review","constraint_basis":"同段 象山／三峰山→张真人墓；輔助節點／原文里數／山脊河谷限制；方向 132.5°"},"geometry":{"type":"Polygon","coordinates":[[[117.212478,28.282141],[117.216423,28.278961],[117.204705,28.267682],[117.200759,28.270861],[117.212478,28.282141]]]}},{"type":"Feature","properties":{"corridor_order":21,"date":"二十三日","segment":"二十三日-A（三峰山）","from_id":"F-185","from_name":"张真人墓","to_id":"23A-02","to_name":"五面峰／一線天母地物","corridor_width_m":1700,"distance_m":1149,"bearing_deg":252.1,"coordinate_status":"estimated_auxiliary_constrained_corridor","gis_decision":"pending/review","constraint_basis":"同段 张真人墓→五面峰／一線天母地物；輔助節點／原文里數／山脊河谷限制；方向 252.1°"},"geometry":{"type":"Polygon","coordinates":[[[117.213234,28.266048],[117.202068,28.262868],[117.196727,28.277415],[117.207893,28.280595],[117.213234,28.266048]]]}},{"type":"Feature","properties":{"corridor_order":22,"date":"二十三日","segment":"二十三日-A（三峰山）","from_id":"23A-02","from_name":"五面峰／一線天母地物","to_id":"F-190","to_name":"一线天","corridor_width_m":1400,"distance_m":200,"bearing_deg":135,"coordinate_status":"estimated_auxiliary_constrained_corridor","gis_decision":"pending/review","constraint_basis":"同段 五面峰／一線天母地物→一线天；輔助節點／原文里數／山脊河谷限制；方向 135.0°"},"geometry":{"type":"Polygon","coordinates":[[[117.204452,28.274593],[117.205896,28.273321],[117.195788,28.264418],[117.194344,28.26569],[117.204452,28.274593]]]}},{"type":"Feature","properties":{"corridor_order":23,"date":"二十三日","segment":"二十三日-A（三峰山）","from_id":"F-190","from_name":"一线天","to_id":"F-192","to_name":"西华","corridor_width_m":1400,"distance_m":385,"bearing_deg":201.5,"coordinate_status":"estimated_auxiliary_constrained_corridor","gis_decision":"pending/review","constraint_basis":"同段 一线天→西华；輔助節點／原文里數／山脊河谷限制；方向 201.5°"},"geometry":{"type":"Polygon","coordinates":[[[117.207491,28.26656],[117.206047,28.263335],[117.192748,28.267955],[117.194192,28.271179],[117.207491,28.26656]]]}},{"type":"Feature","properties":{"corridor_order":24,"date":"二十三日","segment":"二十三日-A（三峰山）","from_id":"F-192","from_name":"西华","to_id":"F-195","to_name":"一线天","corridor_width_m":1400,"distance_m":385,"bearing_deg":21.5,"coordinate_status":"estimated_auxiliary_constrained_corridor","gis_decision":"pending/review","constraint_basis":"同段 西华→一线天；輔助節點／原文里數／山脊河谷限制；方向 21.5°"},"geometry":{"type":"Polygon","coordinates":[[[117.192748,28.267955],[117.194192,28.271179],[117.207491,28.26656],[117.206047,28.263335],[117.192748,28.267955]]]}},{"type":"Feature","properties":{"corridor_order":25,"date":"二十三日","segment":"二十三日-A（三峰山）","from_id":"F-195","from_name":"一线天","to_id":"F-196","to_name":"西华","corridor_width_m":1400,"distance_m":385,"bearing_deg":201.5,"coordinate_status":"estimated_auxiliary_constrained_corridor","gis_decision":"pending/review","constraint_basis":"同段 一线天→西华；輔助節點／原文里數／山脊河谷限制；方向 201.5°"},"geometry":{"type":"Polygon","coordinates":[[[117.207491,28.26656],[117.206047,28.263335],[117.192748,28.267955],[117.194192,28.271179],[117.207491,28.26656]]]}},{"type":"Feature","properties":{"corridor_order":26,"date":"二十三日","segment":"二十三日-A（三峰山）","from_id":"F-196","from_name":"西华","to_id":"F-197","to_name":"一线天","corridor_width_m":1400,"distance_m":385,"bearing_deg":21.5,"coordinate_status":"estimated_auxiliary_constrained_corridor","gis_decision":"pending/review","constraint_basis":"同段 西华→一线天；輔助節點／原文里數／山脊河谷限制；方向 21.5°"},"geometry":{"type":"Polygon","coordinates":[[[117.192748,28.267955],[117.194192,28.271179],[117.207491,28.26656],[117.206047,28.263335],[117.192748,28.267955]]]}},{"type":"Feature","properties":{"corridor_order":27,"date":"二十三日","segment":"二十三日-A（三峰山）","from_id":"F-197","from_name":"一线天","to_id":"23A-03","to_name":"徐岩／朝真宮","corridor_width_m":1400,"distance_m":1209,"bearing_deg":52,"coordinate_status":"estimated_auxiliary_constrained_corridor","gis_decision":"pending/review","constraint_basis":"同段 一线天→徐岩／朝真宮；輔助節點／原文里數／山脊河谷限制；方向 52.0°"},"geometry":{"type":"Polygon","coordinates":[[[117.196436,28.273827],[117.206158,28.280527],[117.214969,28.270612],[117.205247,28.263912],[117.196436,28.273827]]]}},{"type":"Feature","properties":{"corridor_order":28,"date":"二十三日","segment":"二十三日-B（曹山至朱溪）","from_id":"23B-01","from_name":"曹山","to_id":"23B-02","to_name":"陳坊木橋","corridor_width_m":1600,"distance_m":1121,"bearing_deg":239.2,"coordinate_status":"estimated_auxiliary_constrained_corridor","gis_decision":"pending/review","constraint_basis":"同段 曹山→陳坊木橋；輔助節點／原文里數／山脊河谷限制；方向 239.2°"},"geometry":{"type":"Polygon","coordinates":[[[116.112511,27.555973],[116.10274,27.550809],[116.094429,27.563169],[116.104199,27.568333],[116.112511,27.555973]]]}},{"type":"Feature","properties":{"corridor_order":29,"date":"二十三日","segment":"二十三日-B（曹山至朱溪）","from_id":"23B-02","from_name":"陳坊木橋","to_id":"23B-03","to_name":"鵬風橋","corridor_width_m":1600,"distance_m":748,"bearing_deg":239.2,"coordinate_status":"estimated_auxiliary_constrained_corridor","gis_decision":"pending/review","constraint_basis":"同段 陳坊木橋→鵬風橋；輔助節點／原文里數／山脊河谷限制；方向 239.2°"},"geometry":{"type":"Polygon","coordinates":[[[116.10274,27.550809],[116.096226,27.547366],[116.087915,27.559726],[116.094429,27.563169],[116.10274,27.550809]]]}},{"type":"Feature","properties":{"corridor_order":30,"date":"二十三日","segment":"二十三日-B（曹山至朱溪）","from_id":"23B-03","from_name":"鵬風橋","to_id":"23B-04","to_name":"接龍橋","corridor_width_m":1600,"distance_m":1121,"bearing_deg":239.2,"coordinate_status":"estimated_auxiliary_constrained_corridor","gis_decision":"pending/review","constraint_basis":"同段 鵬風橋→接龍橋；輔助節點／原文里數／山脊河谷限制；方向 239.2°"},"geometry":{"type":"Polygon","coordinates":[[[116.096226,27.547366],[116.086455,27.542202],[116.078145,27.554562],[116.087915,27.559726],[116.096226,27.547366]]]}},{"type":"Feature","properties":{"corridor_order":31,"date":"二十三日","segment":"二十三日-B（曹山至朱溪）","from_id":"23B-04","from_name":"接龍橋","to_id":"F-626","to_name":"大霍岭","corridor_width_m":1600,"distance_m":935,"bearing_deg":239.2,"coordinate_status":"estimated_auxiliary_constrained_corridor","gis_decision":"pending/review","constraint_basis":"同段 接龍橋→大霍岭；輔助節點／原文里數／山脊河谷限制；方向 239.2°"},"geometry":{"type":"Polygon","coordinates":[[[116.086455,27.542202],[116.078312,27.537898],[116.070003,27.550258],[116.078145,27.554562],[116.086455,27.542202]]]}},{"type":"Feature","properties":{"corridor_order":32,"date":"二十三日","segment":"二十三日-B（曹山至朱溪）","from_id":"F-626","from_name":"大霍岭","to_id":"F-627","to_name":"龙骨山","corridor_width_m":1600,"distance_m":374,"bearing_deg":239.2,"coordinate_status":"estimated_auxiliary_constrained_corridor","gis_decision":"pending/review","constraint_basis":"同段 大霍岭→龙骨山；輔助節點／原文里數／山脊河谷限制；方向 239.2°"},"geometry":{"type":"Polygon","coordinates":[[[116.078312,27.537898],[116.075055,27.536177],[116.066746,27.548537],[116.070003,27.550258],[116.078312,27.537898]]]}},{"type":"Feature","properties":{"corridor_order":33,"date":"二十三日","segment":"二十三日-B（曹山至朱溪）","from_id":"F-627","from_name":"龙骨山","to_id":"F-628","to_name":"骨岭","corridor_width_m":1600,"distance_m":748,"bearing_deg":239.2,"coordinate_status":"estimated_auxiliary_constrained_corridor","gis_decision":"pending/review","constraint_basis":"同段 龙骨山→骨岭；輔助節點／原文里數／山脊河谷限制；方向 239.2°"},"geometry":{"type":"Polygon","coordinates":[[[116.075055,27.536177],[116.068541,27.532734],[116.060232,27.545094],[116.066746,27.548537],[116.075055,27.536177]]]}},{"type":"Feature","properties":{"corridor_order":34,"date":"二十三日","segment":"二十三日-B（曹山至朱溪）","from_id":"F-628","from_name":"骨岭","to_id":"F-629","to_name":"幞头岭","corridor_width_m":1600,"distance_m":1122,"bearing_deg":239.2,"coordinate_status":"estimated_auxiliary_constrained_corridor","gis_decision":"pending/review","constraint_basis":"同段 骨岭→幞头岭；輔助節點／原文里數／山脊河谷限制；方向 239.2°"},"geometry":{"type":"Polygon","coordinates":[[[116.068541,27.532734],[116.05877,27.527569],[116.050462,27.53993],[116.060232,27.545094],[116.068541,27.532734]]]}},{"type":"Feature","properties":{"corridor_order":35,"date":"二十三日","segment":"二十三日-B（曹山至朱溪）","from_id":"F-629","from_name":"幞头岭","to_id":"F-630","to_name":"纯乡","corridor_width_m":1600,"distance_m":1495,"bearing_deg":239.2,"coordinate_status":"estimated_auxiliary_constrained_corridor","gis_decision":"pending/review","constraint_basis":"同段 幞头岭→纯乡；輔助節點／原文里數／山脊河谷限制；方向 239.2°"},"geometry":{"type":"Polygon","coordinates":[[[116.05877,27.527569],[116.045742,27.520683],[116.037435,27.533044],[116.050462,27.53993],[116.05877,27.527569]]]}},{"type":"Feature","properties":{"corridor_order":36,"date":"二十三日","segment":"二十三日-B（曹山至朱溪）","from_id":"F-630","from_name":"纯乡","to_id":"F-631","to_name":"纯乡村","corridor_width_m":1600,"distance_m":75,"bearing_deg":239.2,"coordinate_status":"estimated_auxiliary_constrained_corridor","gis_decision":"pending/review","constraint_basis":"同段 纯乡→纯乡村；輔助節點／原文里數／山脊河谷限制；方向 239.2°"},"geometry":{"type":"Polygon","coordinates":[[[116.045742,27.520684],[116.04509,27.520339],[116.036783,27.532699],[116.037434,27.533044],[116.045742,27.520684]]]}},{"type":"Feature","properties":{"corridor_order":37,"date":"二十三日","segment":"二十三日-B（曹山至朱溪）","from_id":"F-631","from_name":"纯乡村","to_id":"23B-07","to_name":"純鄉溪","corridor_width_m":1600,"distance_m":75,"bearing_deg":59.2,"coordinate_status":"estimated_auxiliary_constrained_corridor","gis_decision":"pending/review","constraint_basis":"同段 纯乡村→純鄉溪；輔助節點／原文里數／山脊河谷限制；方向 59.2°"},"geometry":{"type":"Polygon","coordinates":[[[116.036783,27.532699],[116.037434,27.533044],[116.045742,27.520684],[116.04509,27.520339],[116.036783,27.532699]]]}},{"type":"Feature","properties":{"corridor_order":38,"date":"二十三日","segment":"二十三日-B（曹山至朱溪）","from_id":"23B-07","from_name":"純鄉溪","to_id":"F-633","to_name":"干冈岭","corridor_width_m":1650,"distance_m":748,"bearing_deg":239.2,"coordinate_status":"estimated_auxiliary_constrained_corridor","gis_decision":"pending/review","constraint_basis":"同段 純鄉溪→干冈岭；輔助節點／原文里數／山脊河谷限制；方向 239.2°"},"geometry":{"type":"Polygon","coordinates":[[[116.045871,27.52049],[116.039357,27.517047],[116.030791,27.529794],[116.037305,27.533237],[116.045871,27.52049]]]}},{"type":"Feature","properties":{"corridor_order":39,"date":"二十三日","segment":"二十三日-B（曹山至朱溪）","from_id":"F-633","from_name":"干冈岭","to_id":"23B-05","to_name":"廖庄橋","corridor_width_m":1650,"distance_m":3739,"bearing_deg":239.2,"coordinate_status":"estimated_auxiliary_constrained_corridor","gis_decision":"pending/review","constraint_basis":"同段 干冈岭→廖庄橋；輔助節點／原文里數／山脊河谷限制；方向 239.2°"},"geometry":{"type":"Polygon","coordinates":[[[116.039356,27.517047],[116.006786,27.499832],[115.998224,27.51258],[116.030792,27.529795],[116.039356,27.517047]]]}},{"type":"Feature","properties":{"corridor_order":40,"date":"二十三日","segment":"二十三日-B（曹山至朱溪）","from_id":"23B-05","from_name":"廖庄橋","to_id":"23B-06","to_name":"練樹橋","corridor_width_m":1600,"distance_m":1870,"bearing_deg":239.2,"coordinate_status":"estimated_auxiliary_constrained_corridor","gis_decision":"pending/review","constraint_basis":"同段 廖庄橋→練樹橋；輔助節點／原文里數／山脊河谷限制；方向 239.2°"},"geometry":{"type":"Polygon","coordinates":[[[116.006657,27.500026],[115.990372,27.491418],[115.982069,27.50378],[115.998353,27.512387],[116.006657,27.500026]]]}},{"type":"Feature","properties":{"corridor_order":41,"date":"二十三日","segment":"二十三日-B（曹山至朱溪）","from_id":"23B-06","from_name":"練樹橋","to_id":"F-636","to_name":"巴溪","corridor_width_m":1700,"distance_m":0,"bearing_deg":0,"coordinate_status":"estimated_auxiliary_constrained_corridor","gis_decision":"pending/review","constraint_basis":"同段 練樹橋→巴溪；輔助節點／原文里數／山脊河谷限制；方向 0.0°"},"geometry":{"type":"Polygon","coordinates":[[[115.977603,27.497599],[115.977603,27.497599],[115.994838,27.497599],[115.994838,27.497599],[115.977603,27.497599]]]}},{"type":"Feature","properties":{"corridor_order":42,"date":"二十三日","segment":"二十三日-B（曹山至朱溪）","from_id":"F-636","from_name":"巴溪","to_id":"23B-08","to_name":"小巴溪／大巴溪水系","corridor_width_m":1700,"distance_m":561,"bearing_deg":239.2,"coordinate_status":"estimated_auxiliary_constrained_corridor","gis_decision":"pending/review","constraint_basis":"同段 巴溪→小巴溪／大巴溪水系；輔助節點／原文里數／山脊河谷限制；方向 239.2°"},"geometry":{"type":"Polygon","coordinates":[[[115.990631,27.491032],[115.985746,27.48845],[115.976924,27.501584],[115.981809,27.504166],[115.990631,27.491032]]]}},{"type":"Feature","properties":{"corridor_order":43,"date":"二十三日","segment":"二十三日-B（曹山至朱溪）","from_id":"23B-08","from_name":"小巴溪／大巴溪水系","to_id":"23B-09","to_name":"罕浒","corridor_width_m":1600,"distance_m":187,"bearing_deg":239.2,"coordinate_status":"estimated_auxiliary_constrained_corridor","gis_decision":"pending/review","constraint_basis":"同段 小巴溪／大巴溪水系→罕浒；輔助節點／原文里數／山脊河谷限制；方向 239.2°"},"geometry":{"type":"Polygon","coordinates":[[[115.985487,27.488836],[115.983858,27.487976],[115.975555,27.500337],[115.977183,27.501198],[115.985487,27.488836]]]}},{"type":"Feature","properties":{"corridor_order":44,"date":"二十三日","segment":"二十三日-B（曹山至朱溪）","from_id":"23B-09","from_name":"罕浒","to_id":"F-650","to_name":"朱碧街","corridor_width_m":1400,"distance_m":1309,"bearing_deg":239.2,"coordinate_status":"estimated_auxiliary_constrained_corridor","gis_decision":"pending/review","constraint_basis":"同段 罕浒→朱碧街；輔助節點／原文里數／山脊河谷限制；方向 239.2°"},"geometry":{"type":"Polygon","coordinates":[[[115.983339,27.488748],[115.971939,27.482723],[115.964675,27.493539],[115.976074,27.499564],[115.983339,27.488748]]]}},{"type":"Feature","properties":{"corridor_order":45,"date":"二十三日","segment":"二十三日-B（曹山至朱溪）","from_id":"F-650","from_name":"朱碧街","to_id":"23B-10","to_name":"朱溪（朱碧街可能今名）","corridor_width_m":1400,"distance_m":0,"bearing_deg":0,"coordinate_status":"estimated_auxiliary_constrained_corridor","gis_decision":"pending/review","constraint_basis":"同段 朱碧街→朱溪（朱碧街可能今名）；輔助節點／原文里數／山脊河谷限制；方向 0.0°"},"geometry":{"type":"Polygon","coordinates":[[[115.961211,27.488131],[115.961211,27.488131],[115.975404,27.488131],[115.975404,27.488131],[115.961211,27.488131]]]}}]}