{"type":"FeatureCollection","name":"二十三日正式再算點","crs":{"type":"name","properties":{"name":"urn:ogc:def:crs:OGC:1.3:CRS84"}},"description":"正式點層","features":[{"type":"Feature","properties":{"point_order":11,"seq":185,"date":"二十三日","name":"张真人墓","segment":"二十三日-A（三峰山）","lon_wgs84":117.21056349002849,"lat_wgs84":28.27332159307314,"radius_m":1800,"shift_m":0,"confidence":"中低","coordinate_status":"estimated_parent_area_with_anchor","gis_decision":"pending/review","auxiliary_count":3,"auxiliary_nodes":"象山／三峰山；五面峰／一線天母地物；徐岩／朝真宮","source_1":"https://www.amap.com/place/B0KG0DFDHG","source_2":"https://www.gushiji.org/guwen/5341","note":"墓址仍未有獨立座標，誤差圈縮至母地物內。 輔助節點只作route_auxiliary；不混入正式地標點層。"},"geometry":{"type":"Point","coordinates":[117.21056349002849,28.27332159307314]}},{"type":"Feature","properties":{"point_order":12,"seq":190,"date":"二十三日","name":"一线天","segment":"二十三日-A（三峰山）","lon_wgs84":117.20084167878814,"lat_wgs84":28.268869805732734,"radius_m":900,"shift_m":0,"confidence":"中低","coordinate_status":"estimated_parent_feature_with_gazetteer","gis_decision":"pending/review","auxiliary_count":2,"auxiliary_nodes":"象山／三峰山；五面峰／一線天母地物","source_1":"https://www.shidianguji.com/book/HY2516/chapter/1kpc9d09e5vdm","source_2":"https://www.gushiji.org/guwen/5341","note":"母地物內部景觀，仍非獨立洞口測量點。 輔助節點只作route_auxiliary；不混入正式地標點層。"},"geometry":{"type":"Point","coordinates":[117.20084167878814,28.268869805732734]}},{"type":"Feature","properties":{"point_order":13,"seq":192,"date":"二十三日","name":"西华","segment":"二十三日-A（三峰山）","lon_wgs84":117.19939762003003,"lat_wgs84":28.265645038106094,"radius_m":1100,"shift_m":0,"confidence":"中低","coordinate_status":"estimated_route_distance_with_gazetteer","gis_decision":"pending/review","auxiliary_count":1,"auxiliary_nodes":"五面峰／一線天母地物","source_1":"https://www.shidianguji.com/book/HY2516/chapter/1kpc9d09e5vdm","source_2":"https://www.gushiji.org/guwen/5341","note":"西華無唯一現代POI，保留南向距離。 輔助節點只作route_auxiliary；不混入正式地標點層。"},"geometry":{"type":"Point","coordinates":[117.19939762003003,28.265645038106094]}},{"type":"Feature","properties":{"point_order":14,"seq":195,"date":"二十三日","name":"一线天","segment":"二十三日-A（三峰山）","lon_wgs84":117.20084167878814,"lat_wgs84":28.268869805732734,"radius_m":900,"shift_m":0,"confidence":"中低","coordinate_status":"estimated_parent_feature_with_gazetteer","gis_decision":"pending/review","auxiliary_count":1,"auxiliary_nodes":"五面峰／一線天母地物","source_1":"https://www.shidianguji.com/book/HY2516/chapter/1kpc9d09e5vdm","source_2":"https://www.gushiji.org/guwen/5341","note":"同190，屬文章重複記錄。 輔助節點只作route_auxiliary；不混入正式地標點層。"},"geometry":{"type":"Point","coordinates":[117.20084167878814,28.268869805732734]}},{"type":"Feature","properties":{"point_order":15,"seq":196,"date":"二十三日","name":"西华","segment":"二十三日-A（三峰山）","lon_wgs84":117.19939762003003,"lat_wgs84":28.265645038106094,"radius_m":1100,"shift_m":0,"confidence":"中低","coordinate_status":"estimated_route_distance_with_gazetteer","gis_decision":"pending/review","auxiliary_count":1,"auxiliary_nodes":"五面峰／一線天母地物","source_1":"https://www.shidianguji.com/book/HY2516/chapter/1kpc9d09e5vdm","source_2":"https://www.gushiji.org/guwen/5341","note":"同192，屬文章重複記錄。 輔助節點只作route_auxiliary；不混入正式地標點層。"},"geometry":{"type":"Point","coordinates":[117.19939762003003,28.265645038106094]}},{"type":"Feature","properties":{"point_order":16,"seq":197,"date":"二十三日","name":"一线天","segment":"二十三日-A（三峰山）","lon_wgs84":117.20084167878814,"lat_wgs84":28.268869805732734,"radius_m":900,"shift_m":0,"confidence":"中低","coordinate_status":"estimated_parent_feature_with_gazetteer","gis_decision":"pending/review","auxiliary_count":2,"auxiliary_nodes":"五面峰／一線天母地物；徐岩／朝真宮","source_1":"https://www.shidianguji.com/book/HY2516/chapter/1kpc9d09e5vdm","source_2":"https://www.gushiji.org/guwen/5341","note":"同名景觀多，僅作母地物內部搜尋中心。 輔助節點只作route_auxiliary；不混入正式地標點層。"},"geometry":{"type":"Point","coordinates":[117.20084167878814,28.268869805732734]}},{"type":"Feature","properties":{"point_order":17,"seq":626,"date":"二十三日","name":"大霍岭","segment":"二十三日-B（曹山至朱溪）","lon_wgs84":116.07415765697674,"lat_wgs84":27.54407813604651,"radius_m":1600,"shift_m":0,"confidence":"低","coordinate_status":"estimated_route_chain_with_auxiliary","gis_decision":"pending/review","auxiliary_count":10,"auxiliary_nodes":"曹山；陳坊木橋；鵬風橋；接龍橋；廖庄橋；練樹橋；純鄉溪；小巴溪／大巴溪水系；罕浒；朱溪（朱碧街可能今名）","source_1":"https://zh.wikisource.org/zh-hans/%E5%BE%90%E9%9C%9E%E5%AE%A2%E9%81%8A%E8%A8%98/%E6%B1%9F%E5%8F%B3%E9%81%8A%E6%97%A5%E8%A8%98","source_2":"https://www.shidianguji.com/book/NA02851/chapter/1m6jjz17v2qzn","note":"加入陳坊木橋、鵬風橋、接龍橋、廖庄橋、練樹橋、罕浒等路線輔助節點後，將長缺口拆段；山嶺本身仍無獨立POI。 輔助節點只作route_auxiliary；不混入正式地標點層。"},"geometry":{"type":"Point","coordinates":[116.07415765697674,27.54407813604651]}},{"type":"Feature","properties":{"point_order":18,"seq":627,"date":"二十三日","name":"龙骨山","segment":"二十三日-B（曹山至朱溪）","lon_wgs84":116.07090072906976,"lat_wgs84":27.542356691860466,"radius_m":1600,"shift_m":0,"confidence":"低","coordinate_status":"estimated_route_chain_with_auxiliary","gis_decision":"pending/review","auxiliary_count":10,"auxiliary_nodes":"曹山；陳坊木橋；鵬風橋；接龍橋；廖庄橋；練樹橋；純鄉溪；小巴溪／大巴溪水系；罕浒；朱溪（朱碧街可能今名）","source_1":"https://zh.wikisource.org/zh-hans/%E5%BE%90%E9%9C%9E%E5%AE%A2%E9%81%8A%E8%A8%98/%E6%B1%9F%E5%8F%B3%E9%81%8A%E6%97%A5%E8%A8%98","source_2":"https://www.shidianguji.com/book/NA02851/chapter/1m6jjz17v2qzn","note":"加入陳坊木橋、鵬風橋、接龍橋、廖庄橋、練樹橋、罕浒等路線輔助節點後，將長缺口拆段；山嶺本身仍無獨立POI。 輔助節點只作route_auxiliary；不混入正式地標點層。"},"geometry":{"type":"Point","coordinates":[116.07090072906976,27.542356691860466]}},{"type":"Feature","properties":{"point_order":19,"seq":628,"date":"二十三日","name":"骨岭","segment":"二十三日-B（曹山至朱溪）","lon_wgs84":116.06438687325581,"lat_wgs84":27.53891380348837,"radius_m":1600,"shift_m":0,"confidence":"低","coordinate_status":"estimated_route_chain_with_auxiliary","gis_decision":"pending/review","auxiliary_count":10,"auxiliary_nodes":"曹山；陳坊木橋；鵬風橋；接龍橋；廖庄橋；練樹橋；純鄉溪；小巴溪／大巴溪水系；罕浒；朱溪（朱碧街可能今名）","source_1":"https://zh.wikisource.org/zh-hans/%E5%BE%90%E9%9C%9E%E5%AE%A2%E9%81%8A%E8%A8%98/%E6%B1%9F%E5%8F%B3%E9%81%8A%E6%97%A5%E8%A8%98","source_2":"https://www.shidianguji.com/book/NA02851/chapter/1m6jjz17v2qzn","note":"加入陳坊木橋、鵬風橋、接龍橋、廖庄橋、練樹橋、罕浒等路線輔助節點後，將長缺口拆段；山嶺本身仍無獨立POI。 輔助節點只作route_auxiliary；不混入正式地標點層。"},"geometry":{"type":"Point","coordinates":[116.06438687325581,27.53891380348837]}},{"type":"Feature","properties":{"point_order":20,"seq":629,"date":"二十三日","name":"幞头岭","segment":"二十三日-B（曹山至朱溪）","lon_wgs84":116.05461608953487,"lat_wgs84":27.533749470930232,"radius_m":1600,"shift_m":0,"confidence":"低","coordinate_status":"estimated_route_chain_with_auxiliary","gis_decision":"pending/review","auxiliary_count":10,"auxiliary_nodes":"曹山；陳坊木橋；鵬風橋；接龍橋；廖庄橋；練樹橋；純鄉溪；小巴溪／大巴溪水系；罕浒；朱溪（朱碧街可能今名）","source_1":"https://zh.wikisource.org/zh-hans/%E5%BE%90%E9%9C%9E%E5%AE%A2%E9%81%8A%E8%A8%98/%E6%B1%9F%E5%8F%B3%E9%81%8A%E6%97%A5%E8%A8%98","source_2":"https://www.shidianguji.com/book/NA02851/chapter/1m6jjz17v2qzn","note":"加入陳坊木橋、鵬風橋、接龍橋、廖庄橋、練樹橋、罕浒等路線輔助節點後，將長缺口拆段；山嶺本身仍無獨立POI。 輔助節點只作route_auxiliary；不混入正式地標點層。"},"geometry":{"type":"Point","coordinates":[116.05461608953487,27.533749470930232]}},{"type":"Feature","properties":{"point_order":21,"seq":630,"date":"二十三日","name":"纯乡","segment":"二十三日-B（曹山至朱溪）","lon_wgs84":116.04158837790698,"lat_wgs84":27.526863694186048,"radius_m":1600,"shift_m":0,"confidence":"低","coordinate_status":"estimated_route_chain_with_auxiliary","gis_decision":"pending/review","auxiliary_count":10,"auxiliary_nodes":"曹山；陳坊木橋；鵬風橋；接龍橋；廖庄橋；練樹橋；純鄉溪；小巴溪／大巴溪水系；罕浒；朱溪（朱碧街可能今名）","source_1":"https://zh.wikisource.org/zh-hans/%E5%BE%90%E9%9C%9E%E5%AE%A2%E9%81%8A%E8%A8%98/%E6%B1%9F%E5%8F%B3%E9%81%8A%E6%97%A5%E8%A8%98","source_2":"https://www.shidianguji.com/book/NA02851/chapter/1m6jjz17v2qzn","note":"加入陳坊木橋、鵬風橋、接龍橋、廖庄橋、練樹橋、罕浒等路線輔助節點後，將長缺口拆段；山嶺本身仍無獨立POI。 輔助節點只作route_auxiliary；不混入正式地標點層。"},"geometry":{"type":"Point","coordinates":[116.04158837790698,27.526863694186048]}},{"type":"Feature","properties":{"point_order":22,"seq":631,"date":"二十三日","name":"纯乡村","segment":"二十三日-B（曹山至朱溪）","lon_wgs84":116.04093699232557,"lat_wgs84":27.526519405348836,"radius_m":1600,"shift_m":0,"confidence":"低","coordinate_status":"estimated_route_chain_with_auxiliary","gis_decision":"pending/review","auxiliary_count":10,"auxiliary_nodes":"曹山；陳坊木橋；鵬風橋；接龍橋；廖庄橋；練樹橋；純鄉溪；小巴溪／大巴溪水系；罕浒；朱溪（朱碧街可能今名）","source_1":"https://zh.wikisource.org/zh-hans/%E5%BE%90%E9%9C%9E%E5%AE%A2%E9%81%8A%E8%A8%98/%E6%B1%9F%E5%8F%B3%E9%81%8A%E6%97%A5%E8%A8%98","source_2":"https://www.shidianguji.com/book/NA02851/chapter/1m6jjz17v2qzn","note":"加入陳坊木橋、鵬風橋、接龍橋、廖庄橋、練樹橋、罕浒等路線輔助節點後，將長缺口拆段；山嶺本身仍無獨立POI。 輔助節點只作route_auxiliary；不混入正式地標點層。"},"geometry":{"type":"Point","coordinates":[116.04093699232557,27.526519405348836]}},{"type":"Feature","properties":{"point_order":23,"seq":633,"date":"二十三日","name":"干冈岭","segment":"二十三日-B（曹山至朱溪）","lon_wgs84":116.03507452209301,"lat_wgs84":27.523420805813952,"radius_m":1700,"shift_m":0,"confidence":"低","coordinate_status":"estimated_route_chain_with_auxiliary","gis_decision":"pending/review","auxiliary_count":10,"auxiliary_nodes":"曹山；陳坊木橋；鵬風橋；接龍橋；廖庄橋；練樹橋；純鄉溪；小巴溪／大巴溪水系；罕浒；朱溪（朱碧街可能今名）","source_1":"https://zh.wikisource.org/zh-hans/%E5%BE%90%E9%9C%9E%E5%AE%A2%E9%81%8A%E8%A8%98/%E6%B1%9F%E5%8F%B3%E9%81%8A%E6%97%A5%E8%A8%98","source_2":"https://www.shidianguji.com/book/NA02851/chapter/1m6jjz17v2qzn","note":"加入陳坊木橋、鵬風橋、接龍橋、廖庄橋、練樹橋、罕浒等路線輔助節點後，將長缺口拆段；山嶺本身仍無獨立POI。 輔助節點只作route_auxiliary；不混入正式地標點層。"},"geometry":{"type":"Point","coordinates":[116.03507452209301,27.523420805813952]}},{"type":"Feature","properties":{"point_order":24,"seq":636,"date":"二十三日","name":"巴溪","segment":"二十三日-B（曹山至朱溪）","lon_wgs84":115.98622060348836,"lat_wgs84":27.49759914302326,"radius_m":1800,"shift_m":0,"confidence":"低","coordinate_status":"estimated_route_chain_with_auxiliary","gis_decision":"pending/review","auxiliary_count":10,"auxiliary_nodes":"曹山；陳坊木橋；鵬風橋；接龍橋；廖庄橋；練樹橋；純鄉溪；小巴溪／大巴溪水系；罕浒；朱溪（朱碧街可能今名）","source_1":"https://zh.wikisource.org/zh-hans/%E5%BE%90%E9%9C%9E%E5%AE%A2%E9%81%8A%E8%A8%98/%E6%B1%9F%E5%8F%B3%E9%81%8A%E6%97%A5%E8%A8%98","source_2":"https://www.shidianguji.com/book/NA02851/chapter/1m6jjz17v2qzn","note":"加入陳坊木橋、鵬風橋、接龍橋、廖庄橋、練樹橋、罕浒等路線輔助節點後，將長缺口拆段；山嶺本身仍無獨立POI。 輔助節點只作route_auxiliary；不混入正式地標點層。"},"geometry":{"type":"Point","coordinates":[115.98622060348836,27.49759914302326]}},{"type":"Feature","properties":{"point_order":25,"seq":650,"date":"二十三日","name":"朱碧街","segment":"二十三日-B（曹山至朱溪）","lon_wgs84":115.9683075,"lat_wgs84":27.4881312,"radius_m":1200,"shift_m":0,"confidence":"中低","coordinate_status":"probable_modern_alias_with_auxiliary","gis_decision":"pending/review","auxiliary_count":10,"auxiliary_nodes":"曹山；陳坊木橋；鵬風橋；接龍橋；廖庄橋；練樹橋；純鄉溪；小巴溪／大巴溪水系；罕浒；朱溪（朱碧街可能今名）","source_1":"https://www.openstreetmap.org/node/8857634831","source_2":"https://sucra.repo.nii.ac.jp/record/17737/files/KY-AA12318206-6401-11.pdf","note":"朱溪村是現代候選，但仍需地方志原文核對朱碧街身份。 輔助節點只作route_auxiliary；不混入正式地標點層。"},"geometry":{"type":"Point","coordinates":[115.9683075,27.4881312]}}]}