{"type":"FeatureCollection","name":"二十三日再算線","crs":{"type":"name","properties":{"name":"urn:ogc:def:crs:OGC:1.3:CRS84"}},"description":"正式點及輔助節點次序線","features":[{"type":"Feature","properties":{"line_order":20,"date":"二十三日","segment":"二十三日-A（三峰山）","from_id":"23A-01","from_name":"象山／三峰山","from_role":"aux","to_id":"F-185","to_name":"张真人墓","to_role":"formal","distance_m":524,"bearing_deg":132.5,"corridor_width_m":1700,"coordinate_status":"estimated_auxiliary_constrained_corridor","gis_decision":"pending/review","direction_note":"同段 象山／三峰山→张真人墓；輔助節點／原文里數／山脊河谷限制；方向 132.5°"},"geometry":{"type":"LineString","coordinates":[[117.206618,28.276501],[117.21056349002849,28.27332159307314]]}},{"type":"Feature","properties":{"line_order":21,"date":"二十三日","segment":"二十三日-A（三峰山）","from_id":"F-185","from_name":"张真人墓","from_role":"formal","to_id":"23A-02","to_name":"五面峰／一線天母地物","to_role":"aux","distance_m":1149,"bearing_deg":252.1,"corridor_width_m":1700,"coordinate_status":"estimated_auxiliary_constrained_corridor","gis_decision":"pending/review","direction_note":"同段 张真人墓→五面峰／一線天母地物；輔助節點／原文里數／山脊河谷限制；方向 252.1°"},"geometry":{"type":"LineString","coordinates":[[117.21056349002849,28.27332159307314],[117.19939762003003,28.270141646135688]]}},{"type":"Feature","properties":{"line_order":22,"date":"二十三日","segment":"二十三日-A（三峰山）","from_id":"23A-02","from_name":"五面峰／一線天母地物","from_role":"aux","to_id":"F-190","to_name":"一线天","to_role":"formal","distance_m":200,"bearing_deg":135,"corridor_width_m":1400,"coordinate_status":"estimated_auxiliary_constrained_corridor","gis_decision":"pending/review","direction_note":"同段 五面峰／一線天母地物→一线天；輔助節點／原文里數／山脊河谷限制；方向 135.0°"},"geometry":{"type":"LineString","coordinates":[[117.19939762003003,28.270141646135688],[117.20084167878814,28.268869805732734]]}},{"type":"Feature","properties":{"line_order":23,"date":"二十三日","segment":"二十三日-A（三峰山）","from_id":"F-190","from_name":"一线天","from_role":"formal","to_id":"F-192","to_name":"西华","to_role":"formal","distance_m":385,"bearing_deg":201.5,"corridor_width_m":1400,"coordinate_status":"estimated_auxiliary_constrained_corridor","gis_decision":"pending/review","direction_note":"同段 一线天→西华；輔助節點／原文里數／山脊河谷限制；方向 201.5°"},"geometry":{"type":"LineString","coordinates":[[117.20084167878814,28.268869805732734],[117.19939762003003,28.265645038106094]]}},{"type":"Feature","properties":{"line_order":24,"date":"二十三日","segment":"二十三日-A（三峰山）","from_id":"F-192","from_name":"西华","from_role":"formal","to_id":"F-195","to_name":"一线天","to_role":"formal","distance_m":385,"bearing_deg":21.5,"corridor_width_m":1400,"coordinate_status":"estimated_auxiliary_constrained_corridor","gis_decision":"pending/review","direction_note":"同段 西华→一线天；輔助節點／原文里數／山脊河谷限制；方向 21.5°"},"geometry":{"type":"LineString","coordinates":[[117.19939762003003,28.265645038106094],[117.20084167878814,28.268869805732734]]}},{"type":"Feature","properties":{"line_order":25,"date":"二十三日","segment":"二十三日-A（三峰山）","from_id":"F-195","from_name":"一线天","from_role":"formal","to_id":"F-196","to_name":"西华","to_role":"formal","distance_m":385,"bearing_deg":201.5,"corridor_width_m":1400,"coordinate_status":"estimated_auxiliary_constrained_corridor","gis_decision":"pending/review","direction_note":"同段 一线天→西华；輔助節點／原文里數／山脊河谷限制；方向 201.5°"},"geometry":{"type":"LineString","coordinates":[[117.20084167878814,28.268869805732734],[117.19939762003003,28.265645038106094]]}},{"type":"Feature","properties":{"line_order":26,"date":"二十三日","segment":"二十三日-A（三峰山）","from_id":"F-196","from_name":"西华","from_role":"formal","to_id":"F-197","to_name":"一线天","to_role":"formal","distance_m":385,"bearing_deg":21.5,"corridor_width_m":1400,"coordinate_status":"estimated_auxiliary_constrained_corridor","gis_decision":"pending/review","direction_note":"同段 西华→一线天；輔助節點／原文里數／山脊河谷限制；方向 21.5°"},"geometry":{"type":"LineString","coordinates":[[117.19939762003003,28.265645038106094],[117.20084167878814,28.268869805732734]]}},{"type":"Feature","properties":{"line_order":27,"date":"二十三日","segment":"二十三日-A（三峰山）","from_id":"F-197","from_name":"一线天","from_role":"formal","to_id":"23A-03","to_name":"徐岩／朝真宮","to_role":"aux","distance_m":1209,"bearing_deg":52,"corridor_width_m":1400,"coordinate_status":"estimated_auxiliary_constrained_corridor","gis_decision":"pending/review","direction_note":"同段 一线天→徐岩／朝真宮；輔助節點／原文里數／山脊河谷限制；方向 52.0°"},"geometry":{"type":"LineString","coordinates":[[117.20084167878814,28.268869805732734],[117.21056349002849,28.275569897087937]]}},{"type":"Feature","properties":{"line_order":28,"date":"二十三日","segment":"二十三日-B（曹山至朱溪）","from_id":"23B-01","from_name":"曹山","from_role":"aux","to_id":"23B-02","to_name":"陳坊木橋","to_role":"aux","distance_m":1121,"bearing_deg":239.2,"corridor_width_m":1600,"coordinate_status":"estimated_auxiliary_constrained_corridor","gis_decision":"pending/review","direction_note":"同段 曹山→陳坊木橋；輔助節點／原文里數／山脊河谷限制；方向 239.2°"},"geometry":{"type":"LineString","coordinates":[[116.1083554,27.5621533],[116.09858461627907,27.55698896744186]]}},{"type":"Feature","properties":{"line_order":29,"date":"二十三日","segment":"二十三日-B（曹山至朱溪）","from_id":"23B-02","from_name":"陳坊木橋","from_role":"aux","to_id":"23B-03","to_name":"鵬風橋","to_role":"aux","distance_m":748,"bearing_deg":239.2,"corridor_width_m":1600,"coordinate_status":"estimated_auxiliary_constrained_corridor","gis_decision":"pending/review","direction_note":"同段 陳坊木橋→鵬風橋；輔助節點／原文里數／山脊河谷限制；方向 239.2°"},"geometry":{"type":"LineString","coordinates":[[116.09858461627907,27.55698896744186],[116.0920707604651,27.553546079069765]]}},{"type":"Feature","properties":{"line_order":30,"date":"二十三日","segment":"二十三日-B（曹山至朱溪）","from_id":"23B-03","from_name":"鵬風橋","from_role":"aux","to_id":"23B-04","to_name":"接龍橋","to_role":"aux","distance_m":1121,"bearing_deg":239.2,"corridor_width_m":1600,"coordinate_status":"estimated_auxiliary_constrained_corridor","gis_decision":"pending/review","direction_note":"同段 鵬風橋→接龍橋；輔助節點／原文里數／山脊河谷限制；方向 239.2°"},"geometry":{"type":"LineString","coordinates":[[116.0920707604651,27.553546079069765],[116.08229997674418,27.548381746511627]]}},{"type":"Feature","properties":{"line_order":31,"date":"二十三日","segment":"二十三日-B（曹山至朱溪）","from_id":"23B-04","from_name":"接龍橋","from_role":"aux","to_id":"F-626","to_name":"大霍岭","to_role":"formal","distance_m":935,"bearing_deg":239.2,"corridor_width_m":1600,"coordinate_status":"estimated_auxiliary_constrained_corridor","gis_decision":"pending/review","direction_note":"同段 接龍橋→大霍岭；輔助節點／原文里數／山脊河谷限制；方向 239.2°"},"geometry":{"type":"LineString","coordinates":[[116.08229997674418,27.548381746511627],[116.07415765697674,27.54407813604651]]}},{"type":"Feature","properties":{"line_order":32,"date":"二十三日","segment":"二十三日-B（曹山至朱溪）","from_id":"F-626","from_name":"大霍岭","from_role":"formal","to_id":"F-627","to_name":"龙骨山","to_role":"formal","distance_m":374,"bearing_deg":239.2,"corridor_width_m":1600,"coordinate_status":"estimated_auxiliary_constrained_corridor","gis_decision":"pending/review","direction_note":"同段 大霍岭→龙骨山；輔助節點／原文里數／山脊河谷限制；方向 239.2°"},"geometry":{"type":"LineString","coordinates":[[116.07415765697674,27.54407813604651],[116.07090072906976,27.542356691860466]]}},{"type":"Feature","properties":{"line_order":33,"date":"二十三日","segment":"二十三日-B（曹山至朱溪）","from_id":"F-627","from_name":"龙骨山","from_role":"formal","to_id":"F-628","to_name":"骨岭","to_role":"formal","distance_m":748,"bearing_deg":239.2,"corridor_width_m":1600,"coordinate_status":"estimated_auxiliary_constrained_corridor","gis_decision":"pending/review","direction_note":"同段 龙骨山→骨岭；輔助節點／原文里數／山脊河谷限制；方向 239.2°"},"geometry":{"type":"LineString","coordinates":[[116.07090072906976,27.542356691860466],[116.06438687325581,27.53891380348837]]}},{"type":"Feature","properties":{"line_order":34,"date":"二十三日","segment":"二十三日-B（曹山至朱溪）","from_id":"F-628","from_name":"骨岭","from_role":"formal","to_id":"F-629","to_name":"幞头岭","to_role":"formal","distance_m":1122,"bearing_deg":239.2,"corridor_width_m":1600,"coordinate_status":"estimated_auxiliary_constrained_corridor","gis_decision":"pending/review","direction_note":"同段 骨岭→幞头岭；輔助節點／原文里數／山脊河谷限制；方向 239.2°"},"geometry":{"type":"LineString","coordinates":[[116.06438687325581,27.53891380348837],[116.05461608953487,27.533749470930232]]}},{"type":"Feature","properties":{"line_order":35,"date":"二十三日","segment":"二十三日-B（曹山至朱溪）","from_id":"F-629","from_name":"幞头岭","from_role":"formal","to_id":"F-630","to_name":"纯乡","to_role":"formal","distance_m":1495,"bearing_deg":239.2,"corridor_width_m":1600,"coordinate_status":"estimated_auxiliary_constrained_corridor","gis_decision":"pending/review","direction_note":"同段 幞头岭→纯乡；輔助節點／原文里數／山脊河谷限制；方向 239.2°"},"geometry":{"type":"LineString","coordinates":[[116.05461608953487,27.533749470930232],[116.04158837790698,27.526863694186048]]}},{"type":"Feature","properties":{"line_order":36,"date":"二十三日","segment":"二十三日-B（曹山至朱溪）","from_id":"F-630","from_name":"纯乡","from_role":"formal","to_id":"F-631","to_name":"纯乡村","to_role":"formal","distance_m":75,"bearing_deg":239.2,"corridor_width_m":1600,"coordinate_status":"estimated_auxiliary_constrained_corridor","gis_decision":"pending/review","direction_note":"同段 纯乡→纯乡村；輔助節點／原文里數／山脊河谷限制；方向 239.2°"},"geometry":{"type":"LineString","coordinates":[[116.04158837790698,27.526863694186048],[116.04093699232557,27.526519405348836]]}},{"type":"Feature","properties":{"line_order":37,"date":"二十三日","segment":"二十三日-B（曹山至朱溪）","from_id":"F-631","from_name":"纯乡村","from_role":"formal","to_id":"23B-07","to_name":"純鄉溪","to_role":"aux","distance_m":75,"bearing_deg":59.2,"corridor_width_m":1600,"coordinate_status":"estimated_auxiliary_constrained_corridor","gis_decision":"pending/review","direction_note":"同段 纯乡村→純鄉溪；輔助節點／原文里數／山脊河谷限制；方向 59.2°"},"geometry":{"type":"LineString","coordinates":[[116.04093699232557,27.526519405348836],[116.04158837790698,27.526863694186048]]}},{"type":"Feature","properties":{"line_order":38,"date":"二十三日","segment":"二十三日-B（曹山至朱溪）","from_id":"23B-07","from_name":"純鄉溪","from_role":"aux","to_id":"F-633","to_name":"干冈岭","to_role":"formal","distance_m":748,"bearing_deg":239.2,"corridor_width_m":1650,"coordinate_status":"estimated_auxiliary_constrained_corridor","gis_decision":"pending/review","direction_note":"同段 純鄉溪→干冈岭；輔助節點／原文里數／山脊河谷限制；方向 239.2°"},"geometry":{"type":"LineString","coordinates":[[116.04158837790698,27.526863694186048],[116.03507452209301,27.523420805813952]]}},{"type":"Feature","properties":{"line_order":39,"date":"二十三日","segment":"二十三日-B（曹山至朱溪）","from_id":"F-633","from_name":"干冈岭","from_role":"formal","to_id":"23B-05","to_name":"廖庄橋","to_role":"aux","distance_m":3739,"bearing_deg":239.2,"corridor_width_m":1650,"coordinate_status":"estimated_auxiliary_constrained_corridor","gis_decision":"pending/review","direction_note":"同段 干冈岭→廖庄橋；輔助節點／原文里數／山脊河谷限制；方向 239.2°"},"geometry":{"type":"LineString","coordinates":[[116.03507452209301,27.523420805813952],[116.00250524302325,27.50620636395349]]}},{"type":"Feature","properties":{"line_order":40,"date":"二十三日","segment":"二十三日-B（曹山至朱溪）","from_id":"23B-05","from_name":"廖庄橋","from_role":"aux","to_id":"23B-06","to_name":"練樹橋","to_role":"aux","distance_m":1870,"bearing_deg":239.2,"corridor_width_m":1600,"coordinate_status":"estimated_auxiliary_constrained_corridor","gis_decision":"pending/review","direction_note":"同段 廖庄橋→練樹橋；輔助節點／原文里數／山脊河谷限制；方向 239.2°"},"geometry":{"type":"LineString","coordinates":[[116.00250524302325,27.50620636395349],[115.98622060348836,27.49759914302326]]}},{"type":"Feature","properties":{"line_order":41,"date":"二十三日","segment":"二十三日-B（曹山至朱溪）","from_id":"23B-06","from_name":"練樹橋","from_role":"aux","to_id":"F-636","to_name":"巴溪","to_role":"formal","distance_m":0,"bearing_deg":0,"corridor_width_m":1700,"coordinate_status":"estimated_auxiliary_constrained_corridor","gis_decision":"pending/review","direction_note":"同段 練樹橋→巴溪；輔助節點／原文里數／山脊河谷限制；方向 0.0°"},"geometry":{"type":"LineString","coordinates":[[115.98622060348836,27.49759914302326],[115.98622060348836,27.49759914302326]]}},{"type":"Feature","properties":{"line_order":42,"date":"二十三日","segment":"二十三日-B（曹山至朱溪）","from_id":"F-636","from_name":"巴溪","from_role":"formal","to_id":"23B-08","to_name":"小巴溪／大巴溪水系","to_role":"aux","distance_m":561,"bearing_deg":239.2,"corridor_width_m":1700,"coordinate_status":"estimated_auxiliary_constrained_corridor","gis_decision":"pending/review","direction_note":"同段 巴溪→小巴溪／大巴溪水系；輔助節點／原文里數／山脊河谷限制；方向 239.2°"},"geometry":{"type":"LineString","coordinates":[[115.98622060348836,27.49759914302326],[115.98133521162791,27.495016976744186]]}},{"type":"Feature","properties":{"line_order":43,"date":"二十三日","segment":"二十三日-B（曹山至朱溪）","from_id":"23B-08","from_name":"小巴溪／大巴溪水系","from_role":"aux","to_id":"23B-09","to_name":"罕浒","to_role":"aux","distance_m":187,"bearing_deg":239.2,"corridor_width_m":1600,"coordinate_status":"estimated_auxiliary_constrained_corridor","gis_decision":"pending/review","direction_note":"同段 小巴溪／大巴溪水系→罕浒；輔助節點／原文里數／山脊河谷限制；方向 239.2°"},"geometry":{"type":"LineString","coordinates":[[115.98133521162791,27.495016976744186],[115.97970674767441,27.494156254651163]]}},{"type":"Feature","properties":{"line_order":44,"date":"二十三日","segment":"二十三日-B（曹山至朱溪）","from_id":"23B-09","from_name":"罕浒","from_role":"aux","to_id":"F-650","to_name":"朱碧街","to_role":"formal","distance_m":1309,"bearing_deg":239.2,"corridor_width_m":1400,"coordinate_status":"estimated_auxiliary_constrained_corridor","gis_decision":"pending/review","direction_note":"同段 罕浒→朱碧街；輔助節點／原文里數／山脊河谷限制；方向 239.2°"},"geometry":{"type":"LineString","coordinates":[[115.97970674767441,27.494156254651163],[115.9683075,27.4881312]]}},{"type":"Feature","properties":{"line_order":45,"date":"二十三日","segment":"二十三日-B（曹山至朱溪）","from_id":"F-650","from_name":"朱碧街","from_role":"formal","to_id":"23B-10","to_name":"朱溪（朱碧街可能今名）","to_role":"aux","distance_m":0,"bearing_deg":0,"corridor_width_m":1400,"coordinate_status":"estimated_auxiliary_constrained_corridor","gis_decision":"pending/review","direction_note":"同段 朱碧街→朱溪（朱碧街可能今名）；輔助節點／原文里數／山脊河谷限制；方向 0.0°"},"geometry":{"type":"LineString","coordinates":[[115.9683075,27.4881312],[115.9683075,27.4881312]]}}]}